{"type":"FeatureCollection","name":"ne_50m_admin_1_india_lines","features":[{"type":"Feature","properties":{"name":null,"adm0":"India"},"bbox":[75.222179,11.959964,75.312665,12.075639],"geometry":{"type":"LineString","coordinates":[[75.312665,11.959964],[75.262288,12.075639],[75.222179,12.02204]]}},{"type":"Feature","properties":{"name":null,"adm0":"India"},"bbox":[79.68602,10.809638,79.849561,11.99994],"geometry":{"type":"MultiLineString","coordinates":[[[79.847341,10.809638],[79.767359,10.88856],[79.70545,10.910445],[79.73749,10.986229],[79.846688,10.979834]],[[79.810869,11.832977],[79.727051,11.841629],[79.68602,11.99994],[79.79113,11.916818],[79.849561,11.955176]]]}},{"type":"Feature","properties":{"name":null,"adm0":"India"},"bbox":[74.892788,11.666833,76.415936,12.755551],"geometry":{"type":"LineString","coordinates":[[76.415936,11.666833],[76.38927,11.744012],[76.316613,11.746854],[76.17657,11.857029],[76.115489,11.857494],[76.055751,11.96374],[75.960563,11.928626],[75.846048,11.951105],[75.776181,12.009784],[75.761092,12.068747],[75.629213,12.102052],[75.536609,12.168947],[75.426228,12.291782],[75.389331,12.294728],[75.312024,12.469498],[75.102114,12.678865],[74.892788,12.755551]]}},{"type":"Feature","properties":{"name":null,"adm0":"India"},"bbox":[76.240752,8.285174,77.398615,11.666833],"geometry":{"type":"LineString","coordinates":[[76.415936,11.666833],[76.339248,11.591489],[76.240752,11.603969],[76.256255,11.478447],[76.409114,11.436822],[76.495414,11.384758],[76.533758,11.313134],[76.466268,11.205234],[76.641245,11.208644],[76.719173,11.138726],[76.690441,10.933364],[76.819838,10.875951],[76.889705,10.78004],[76.875546,10.678496],[76.821079,10.633176],[76.808573,10.437115],[76.841543,10.310663],[76.928049,10.235551],[76.98634,10.231288],[77.064578,10.296297],[77.191495,10.351306],[77.276968,10.210101],[77.224258,10.05781],[77.260225,9.962209],[77.225912,9.858882],[77.23542,9.764676],[77.187671,9.612773],[77.263222,9.557376],[77.340634,9.579958],[77.398615,9.499963],[77.312108,9.30088],[77.254541,9.122105],[77.164934,9.001001],[77.202554,8.89416],[77.24927,8.859098],[77.23542,8.784141],[77.178886,8.695232],[77.203794,8.611981],[77.278829,8.526405],[77.166071,8.336933],[77.110331,8.285174]]}},{"type":"Feature","properties":{"name":null,"adm0":"India"},"bbox":[77.257435,15.95298,77.62134,18.307875],"geometry":{"type":"LineString","coordinates":[[77.551163,18.307875],[77.599946,18.114838],[77.562946,18.070784],[77.62134,17.986835],[77.61979,17.92565],[77.500314,17.812298],[77.525429,17.746281],[77.463623,17.713415],[77.411534,17.630785],[77.492872,17.57761],[77.582583,17.578772],[77.599326,17.486917],[77.37443,17.222567],[77.465174,17.042578],[77.433444,16.934755],[77.410914,16.720582],[77.431998,16.593613],[77.370916,16.524289],[77.257435,16.449358],[77.293711,16.406518],[77.53318,16.361043],[77.490805,16.261592],[77.483674,16.002073],[77.446467,15.95298]]}},{"type":"Feature","properties":{"name":null,"adm0":"India"},"bbox":[76.415936,11.625596,78.229572,12.87278],"geometry":{"type":"LineString","coordinates":[[78.229572,12.759893],[78.056249,12.845935],[78.002092,12.807151],[77.895018,12.87278],[77.801277,12.856554],[77.765311,12.718733],[77.609351,12.672793],[77.568733,12.55957],[77.618859,12.46663],[77.560775,12.339661],[77.471892,12.274238],[77.492149,12.205457],[77.667849,12.203881],[77.768721,12.120036],[77.670846,11.971311],[77.489772,11.92612],[77.433858,11.811527],[77.353863,11.7837],[77.259192,11.816902],[77.121939,11.792536],[77.082561,11.756776],[76.997399,11.825919],[76.907688,11.800184],[76.820769,11.625596],[76.750799,11.642339],[76.605381,11.631177],[76.532207,11.709079],[76.465338,11.71497],[76.415936,11.666833]]}},{"type":"Feature","properties":{"name":null,"adm0":"India"},"bbox":[73.680375,15.613543,74.100625,15.77188],"geometry":{"type":"LineString","coordinates":[[74.100625,15.640286],[73.990347,15.613543],[73.942805,15.632457],[73.908388,15.721237],[73.813097,15.77188],[73.680375,15.712806]]}},{"type":"Feature","properties":{"name":null,"adm0":"India"},"bbox":[74.091156,14.8876,74.30423,15.640286],"geometry":{"type":"LineString","coordinates":[[74.100625,15.640286],[74.226818,15.629847],[74.257824,15.518588],[74.236534,15.472467],[74.30423,15.28917],[74.241185,15.23783],[74.292758,15.188272],[74.259685,15.097683],[74.241185,14.956038],[74.091156,14.8876]]}},{"type":"Feature","properties":{"name":null,"adm0":"India"},"bbox":[77.502588,18.307875,80.270377,19.866152],"geometry":{"type":"LineString","coordinates":[[80.270377,18.71369],[80.090543,18.69749],[80.001866,18.785624],[79.960319,18.867117],[79.93355,19.053127],[79.861823,19.081084],[79.943782,19.169218],[79.930553,19.211928],[79.965486,19.401917],[79.93107,19.482532],[79.864924,19.50899],[79.795781,19.594101],[79.735423,19.603352],[79.538949,19.533821],[79.420403,19.536379],[79.266002,19.589555],[79.197731,19.461883],[79.058876,19.547063],[79.024346,19.541525],[78.87253,19.650119],[78.847518,19.724533],[78.780029,19.776674],[78.711713,19.774349],[78.533739,19.824656],[78.477722,19.799128],[78.383257,19.866152],[78.321762,19.863258],[78.383567,19.684535],[78.333441,19.643272],[78.302642,19.482765],[78.240114,19.460182],[78.174381,19.374657],[78.16787,19.264096],[78.063897,19.264096],[77.992377,19.322749],[77.92003,19.331663],[77.855021,19.228362],[77.833627,19.121443],[77.751978,19.045892],[77.912072,18.835362],[77.839311,18.80955],[77.781123,18.703768],[77.703402,18.669119],[77.679941,18.569978],[77.592298,18.548145],[77.502588,18.381591],[77.551163,18.307875]]}},{"type":"Feature","properties":{"name":null,"adm0":"India"},"bbox":[74.100625,15.640286,77.551163,18.460269],"geometry":{"type":"LineString","coordinates":[[77.551163,18.307875],[77.461453,18.281933],[77.346628,18.351516],[77.301876,18.460269],[77.232733,18.410659],[77.23108,18.333791],[77.117908,18.253847],[77.087729,18.197055],[76.949546,18.179976],[76.892909,18.144293],[76.885054,17.974459],[76.839062,17.884232],[76.740877,17.898417],[76.755656,17.825837],[76.675971,17.706852],[76.592669,17.770595],[76.512984,17.772817],[76.390614,17.636779],[76.322194,17.61771],[76.343795,17.351861],[76.210367,17.388913],[76.094715,17.377751],[75.936482,17.325868],[75.870026,17.416147],[75.783933,17.374805],[75.61309,17.471595],[75.552836,17.365917],[75.622082,17.220939],[75.605132,17.158126],[75.646783,17.091412],[75.616708,16.974675],[75.553766,17.014905],[75.45341,16.964055],[75.370831,16.984467],[75.256006,16.959172],[75.24257,16.902095],[75.166503,16.867937],[75.043409,16.952816],[74.960004,16.951136],[74.92228,16.889331],[74.844559,16.852021],[74.866676,16.776211],[74.684878,16.708438],[74.665758,16.606222],[74.557444,16.551652],[74.524578,16.623843],[74.43001,16.644333],[74.353219,16.543512],[74.292448,16.528371],[74.366241,16.292882],[74.451921,16.253944],[74.469594,16.109792],[74.415954,16.096356],[74.42877,15.993753],[74.354459,15.872572],[74.331102,15.761932],[74.223511,15.726095],[74.186097,15.76573],[74.100625,15.640286]]}},{"type":"Feature","properties":{"name":null,"adm0":"India"},"bbox":[74.12884,21.074812,80.679034,22.023049],"geometry":{"type":"LineString","coordinates":[[74.12884,21.951761],[74.204908,21.92507],[74.284386,21.94494],[74.407686,22.023049],[74.485614,21.945973],[74.512486,21.726917],[74.708133,21.611162],[74.894065,21.61204],[75.047957,21.554059],[75.129916,21.437684],[75.31192,21.38146],[75.534749,21.371797],[75.814008,21.383372],[75.877777,21.399779],[76.082933,21.368076],[76.142877,21.193125],[76.108564,21.153128],[76.186802,21.085819],[76.286641,21.074812],[76.436606,21.107808],[76.498308,21.180361],[76.614063,21.202479],[76.653957,21.251313],[76.63339,21.341049],[76.729508,21.413009],[76.785525,21.501685],[76.79369,21.577004],[76.917404,21.618086],[77.028818,21.693586],[77.115531,21.724049],[77.218987,21.700846],[77.332985,21.774459],[77.46073,21.770041],[77.551783,21.696764],[77.555194,21.542484],[77.456802,21.548504],[77.433134,21.498817],[77.481814,21.423886],[77.578035,21.384457],[77.712601,21.380272],[77.787531,21.423008],[77.871454,21.3981],[78.02917,21.437684],[78.192675,21.551114],[78.413333,21.606304],[78.427906,21.508481],[78.513689,21.526593],[78.696003,21.474762],[78.904156,21.509282],[78.921932,21.572275],[79.215765,21.65457],[79.240053,21.712758],[79.413065,21.689813],[79.533058,21.619275],[79.551558,21.550029],[79.650467,21.581551],[79.798365,21.587804],[79.840326,21.534345],[80.005277,21.548323],[80.186661,21.63948],[80.310168,21.580233],[80.417552,21.446831],[80.625601,21.326476],[80.679034,21.351152]]}},{"type":"Feature","properties":{"name":null,"adm0":"India"},"bbox":[80.270377,18.71369,80.893905,21.351152],"geometry":{"type":"LineString","coordinates":[[80.679034,21.351152],[80.625601,21.242657],[80.484524,21.167701],[80.435328,20.999235],[80.48132,20.931978],[80.552117,20.919318],[80.572994,20.697574],[80.503025,20.633289],[80.622397,20.600913],[80.622397,20.325891],[80.424373,20.234088],[80.426337,20.146238],[80.53062,20.134869],[80.557181,20.048337],[80.531137,19.920697],[80.425096,19.892817],[80.537751,19.81091],[80.565553,19.739777],[80.675727,19.676551],[80.712934,19.592603],[80.830963,19.547102],[80.893905,19.484444],[80.832203,19.345409],[80.716655,19.262701],[80.617436,19.318563],[80.575992,19.391969],[80.397088,19.234175],[80.366599,19.117386],[80.271824,18.979436],[80.344171,18.85071],[80.274821,18.776942],[80.270377,18.71369]]}},{"type":"Feature","properties":{"name":null,"adm0":"India"},"bbox":[83.337063,22.539348,84.352195,24.140232],"geometry":{"type":"LineString","coordinates":[[83.970203,22.539348],[83.996248,22.592704],[84.190965,22.70094],[84.228275,22.78308],[84.352195,22.88558],[84.291734,22.997227],[84.115,22.998855],[84.089059,23.084819],[84.028908,23.146107],[84.038623,23.309404],[84.015368,23.382604],[83.946949,23.370021],[83.95222,23.474924],[84.014541,23.553989],[83.991184,23.631762],[83.906434,23.564686],[83.780861,23.586493],[83.720813,23.676152],[83.735282,23.738345],[83.696628,23.818701],[83.556792,23.9358],[83.521755,24.065896],[83.442277,24.12181],[83.337063,24.140232]]}},{"type":"Feature","properties":{"name":null,"adm0":"India"},"bbox":[80.679034,21.351152,82.800869,23.998716],"geometry":{"type":"LineString","coordinates":[[82.800869,23.998716],[82.768106,23.928953],[82.657725,23.884537],[82.6508,23.844824],[82.531738,23.775371],[82.077399,23.801364],[81.936942,23.840664],[81.778192,23.801881],[81.681867,23.885132],[81.622026,23.833791],[81.686208,23.690311],[81.591434,23.561172],[81.644144,23.482055],[81.744602,23.542594],[81.907177,23.505181],[81.991409,23.400536],[82.098173,23.371726],[82.189743,23.288734],[82.129385,23.096498],[82.070784,23.100347],[81.946141,23.042961],[81.940249,22.945835],[81.788527,22.852946],[81.76641,22.663992],[81.669568,22.609292],[81.642283,22.550846],[81.53955,22.519995],[81.417801,22.437494],[81.372636,22.492684],[81.234866,22.444496],[81.178022,22.478422],[81.122522,22.400519],[81.118904,22.294608],[81.02351,22.193969],[80.987336,22.108005],[80.91902,22.097463],[80.835097,21.950986],[80.837888,21.846135],[80.805125,21.774304],[80.730504,21.714308],[80.721409,21.473212],[80.679034,21.351152]]}},{"type":"Feature","properties":{"name":null,"adm0":"India"},"bbox":[76.836892,28.432606,77.327404,28.882088],"geometry":{"type":"LineString","coordinates":[[77.327404,28.519707],[77.269734,28.510276],[77.193562,28.432606],[77.100545,28.475601],[77.070883,28.528569],[76.872652,28.519422],[76.836892,28.587222],[76.947273,28.696156],[76.936524,28.81465],[77.067989,28.882088],[77.200797,28.876791]]}},{"type":"Feature","properties":{"name":null,"adm0":"India"},"bbox":[76.814567,30.680712,76.82728,30.789129],"geometry":{"type":"LineString","coordinates":[[76.814567,30.789129],[76.82728,30.680712]]}},{"type":"Feature","properties":{"name":null,"adm0":"India"},"bbox":[77.200797,28.519707,77.337533,28.876791],"geometry":{"type":"LineString","coordinates":[[77.327404,28.519707],[77.337533,28.626186],[77.306941,28.720599],[77.227152,28.783592],[77.200797,28.876791]]}},{"type":"Feature","properties":{"name":null,"adm0":"India"},"bbox":[78.16911,23.998716,82.808414,26.851049],"geometry":{"type":"LineString","coordinates":[[82.800869,23.998716],[82.679429,24.166768],[82.732863,24.21413],[82.766969,24.386031],[82.734103,24.419698],[82.734413,24.551628],[82.808414,24.566408],[82.772137,24.668314],[82.692245,24.719809],[82.623929,24.691878],[82.427145,24.718569],[82.423631,24.647514],[82.302708,24.638135],[82.319038,24.702033],[82.033164,24.859491],[81.881132,24.921528],[81.817156,25.035759],[81.585232,25.079632],[81.536967,25.199754],[81.360543,25.156966],[81.243238,25.169523],[81.239,25.098081],[81.184843,24.97292],[81.09813,24.908609],[80.998808,24.96566],[80.892975,24.984134],[80.778667,24.971499],[80.858868,25.187558],[80.806055,25.212156],[80.717895,25.081984],[80.647202,25.070098],[80.579506,25.147923],[80.515117,25.040668],[80.458376,25.01514],[80.288257,25.016225],[80.265313,25.063819],[80.421996,25.180737],[80.395021,25.246676],[80.326498,25.282256],[80.283606,25.41447],[80.191106,25.413333],[80.124546,25.350959],[80.015302,25.330909],[79.852108,25.247839],[79.86327,25.153245],[79.661112,25.148078],[79.541636,25.176551],[79.468152,25.103843],[79.339065,25.147406],[79.424744,25.257192],[79.294519,25.259415],[79.268991,25.164123],[79.109001,25.195026],[79.024045,25.174639],[78.983427,25.237375],[78.885035,25.265538],[78.954902,25.385712],[78.919142,25.504593],[78.853099,25.434029],[78.748816,25.426149],[78.727526,25.346386],[78.597094,25.414005],[78.515859,25.26621],[78.609807,25.136321],[78.640192,24.96411],[78.732073,24.81492],[78.715433,24.685109],[78.750367,24.629841],[78.878731,24.613201],[78.955005,24.392542],[78.825814,24.230149],[78.746646,24.279423],[78.655902,24.29459],[78.489401,24.410784],[78.385531,24.30123],[78.330134,24.342029],[78.350494,24.407968],[78.277527,24.453107],[78.228848,24.532741],[78.264815,24.583487],[78.261301,24.692653],[78.16911,24.865459],[78.336542,25.022995],[78.366307,25.186008],[78.261921,25.411705],[78.330031,25.464777],[78.370545,25.552678],[78.55844,25.575545],[78.714503,25.62593],[78.753571,25.674273],[78.739825,25.789796],[78.808348,25.84155],[78.954075,26.109983],[78.963274,26.278086],[79.060839,26.355084],[79.028076,26.497556],[78.974436,26.571583],[78.935782,26.694443],[78.842351,26.711936],[78.693213,26.797874],[78.563505,26.758496],[78.371475,26.851049],[78.200116,26.823583]]}},{"type":"Feature","properties":{"name":null,"adm0":"India"},"bbox":[77.064681,27.80944,77.585063,30.382926],"geometry":{"type":"MultiLineString","coordinates":[[[77.280689,27.80944],[77.424453,27.890753],[77.47985,27.898039],[77.526462,27.974468],[77.468068,28.046815],[77.528942,28.25347],[77.466517,28.315223],[77.497006,28.393254],[77.327404,28.519707]],[[77.200797,28.876791],[77.195733,28.997584],[77.141369,29.130341],[77.130724,29.28059],[77.149844,29.403374],[77.064681,29.569513],[77.087832,29.6585],[77.180437,29.804253],[77.229943,29.976646],[77.28472,30.038089],[77.570077,30.27823],[77.585063,30.382926]]]}},{"type":"Feature","properties":{"name":null,"adm0":"India"},"bbox":[83.337063,24.140232,83.523099,24.529666],"geometry":{"type":"LineString","coordinates":[[83.523099,24.529666],[83.401659,24.498298],[83.453956,24.361588],[83.337063,24.140232]]}},{"type":"Feature","properties":{"name":null,"adm0":"India"},"bbox":[82.800869,23.911047,83.337063,24.140232],"geometry":{"type":"LineString","coordinates":[[83.337063,24.140232],[83.206322,23.944017],[83.08881,23.911047],[82.964373,23.913915],[82.800869,23.998716]]}},{"type":"Feature","properties":{"name":null,"adm0":"India"},"bbox":[83.523099,24.307354,87.783717,25.323778],"geometry":{"type":"LineString","coordinates":[[87.783717,25.214094],[87.72615,25.251611],[87.598715,25.266701],[87.523475,25.323778],[87.406686,25.181047],[87.291861,25.174252],[87.265919,25.072165],[87.185511,25.061985],[87.117298,24.970879],[87.119158,24.851145],[87.077507,24.745337],[87.050015,24.597026],[86.925475,24.613588],[86.889922,24.531604],[86.755356,24.588138],[86.702336,24.547778],[86.585651,24.561447],[86.49439,24.479798],[86.438683,24.340375],[86.276419,24.434814],[86.290475,24.551551],[86.154876,24.556098],[86.097722,24.690483],[86.03292,24.712394],[85.911583,24.698467],[85.830865,24.770917],[85.746012,24.770039],[85.64731,24.648573],[85.6624,24.568888],[85.578374,24.557804],[85.526387,24.501554],[85.391408,24.50946],[85.280614,24.487265],[84.96146,24.348385],[84.88901,24.372828],[84.798473,24.496593],[84.588253,24.394429],[84.519213,24.307509],[84.471981,24.307354],[84.311888,24.451144],[84.305376,24.530803],[84.09557,24.504138],[84.043894,24.623898],[83.918423,24.543799],[83.787889,24.537314],[83.695905,24.506282],[83.523099,24.529666]]}},{"type":"Feature","properties":{"name":null,"adm0":"India"},"bbox":[83.323317,24.529666,84.605513,27.377812],"geometry":{"type":"LineString","coordinates":[[83.523099,24.529666],[83.530953,24.703583],[83.508836,24.762081],[83.360214,24.863263],[83.359904,25.008965],[83.323317,25.068005],[83.334273,25.172624],[83.384089,25.235928],[83.774866,25.444959],[83.904264,25.529476],[84.143422,25.736207],[84.212876,25.728042],[84.238921,25.64797],[84.324187,25.658899],[84.314678,25.74215],[84.372762,25.765068],[84.486657,25.700731],[84.600656,25.747008],[84.605513,25.799795],[84.531616,25.862091],[84.419685,25.889557],[84.374313,25.940303],[84.261451,25.931312],[84.150347,26.066006],[84.064874,26.103549],[83.992734,26.241138],[84.187244,26.292788],[84.177632,26.40428],[84.026117,26.46916],[83.955114,26.453915],[83.920077,26.53267],[84.054022,26.564761],[84.099187,26.649588],[84.382994,26.641656],[84.306307,26.744363],[84.246362,26.757049],[84.240781,26.8742],[84.149004,26.876344],[84.070559,26.923602],[84.02343,27.059951],[83.938267,27.164389],[83.942401,27.222499],[83.828816,27.377812]]}},{"type":"Feature","properties":{"name":null,"adm0":"India"},"bbox":[76.768162,30.382926,77.585063,30.907597],"geometry":{"type":"LineString","coordinates":[[77.585063,30.382926],[77.303427,30.460312],[77.147777,30.538679],[77.150258,30.663994],[77.115118,30.722104],[77.001533,30.777347],[76.905725,30.899303],[76.768162,30.907597]]}},{"type":"Feature","properties":{"name":null,"adm0":"India"},"bbox":[81.758969,17.908933,84.777761,19.160588],"geometry":{"type":"LineString","coordinates":[[81.758969,17.908933],[81.92361,18.000219],[82.042362,18.043266],[82.131866,18.038848],[82.240076,17.992933],[82.32989,18.044041],[82.352834,18.1553],[82.309529,18.194755],[82.360792,18.291623],[82.368234,18.413993],[82.449056,18.5221],[82.502696,18.510628],[82.511274,18.422209],[82.597367,18.325213],[82.586722,18.244391],[82.781438,18.357846],[82.779681,18.416731],[82.878383,18.409083],[82.904118,18.35534],[83.0392,18.390351],[83.036513,18.469493],[83.083539,18.525329],[83.028142,18.640852],[83.126534,18.758158],[83.201671,18.741621],[83.394218,18.869417],[83.326831,18.929698],[83.341404,19.004577],[83.423673,18.964347],[83.490129,19.051551],[83.572605,19.069947],[83.612809,19.129789],[83.706447,19.001424],[83.801841,18.999952],[83.854241,18.860038],[83.902404,18.805648],[84.071386,18.81787],[84.153138,18.787717],[84.317779,18.80924],[84.462576,18.946312],[84.525208,19.032973],[84.64148,19.10054],[84.6945,19.160588],[84.777761,19.116197]]}},{"type":"Feature","properties":{"name":null,"adm0":"India"},"bbox":[76.719483,12.759893,78.568362,15.976389],"geometry":{"type":"LineString","coordinates":[[78.229572,12.759893],[78.285899,12.843377],[78.415813,12.948202],[78.516479,13.089098],[78.568362,13.274823],[78.38088,13.322753],[78.350184,13.376109],[78.374679,13.579637],[78.184096,13.601547],[78.068238,13.698725],[78.096763,13.809002],[78.032684,13.884734],[77.92065,13.830474],[77.878792,13.916619],[77.734925,13.824221],[77.593228,13.767093],[77.499487,13.704461],[77.44254,13.701955],[77.384042,13.846726],[77.292058,13.848432],[77.152221,13.903596],[77.102612,13.849672],[77.133204,13.784818],[77.032332,13.746241],[76.958538,13.781614],[77.010421,13.904991],[76.935904,14.010902],[76.942622,14.06108],[76.872962,14.137354],[76.973628,14.156087],[76.995332,14.066377],[77.112327,14.005063],[77.289267,14.010747],[77.332365,13.908169],[77.387969,13.962946],[77.327921,14.052166],[77.368539,14.163425],[77.467758,14.192442],[77.46104,14.290136],[77.384352,14.261972],[77.278208,14.295588],[77.256814,14.333957],[77.111294,14.329617],[77.045458,14.231664],[76.908205,14.257864],[76.86242,14.347238],[76.931563,14.457567],[76.829967,14.478651],[76.752866,14.565597],[76.761858,14.763673],[76.799685,14.794834],[76.822216,14.920976],[76.719483,14.989731],[76.764338,15.094118],[76.947996,15.021642],[77.080391,15.036654],[77.12814,15.132255],[77.104886,15.308213],[77.025924,15.351492],[76.999672,15.613776],[77.084939,15.667287],[77.025304,15.781285],[77.034089,15.873734],[77.143746,15.960706],[77.226429,15.976389],[77.446467,15.95298]]}},{"type":"Feature","properties":{"name":null,"adm0":"India"},"bbox":[77.446467,15.832953,81.775781,17.908933],"geometry":{"type":"LineString","coordinates":[[77.446467,15.95298],[77.641205,15.900662],[77.849864,15.893866],[77.88795,15.919135],[78.087494,15.832953],[78.235281,15.950466],[78.255951,16.005683],[78.399994,16.083441],[78.499766,16.093777],[78.73406,16.0303],[78.839447,16.066718],[78.839122,16.124823],[79.021658,16.247138],[79.160574,16.219346],[79.214773,16.244493],[79.233409,16.330512],[79.213471,16.493232],[79.265636,16.569607],[79.406261,16.587226],[79.504324,16.641872],[79.720876,16.689032],[79.751964,16.723741],[79.882335,16.703233],[79.9581,16.630439],[80.042979,16.738552],[80.073334,16.822862],[80.002428,16.871004],[80.077643,16.972555],[80.220451,17.033251],[80.280555,16.997387],[80.350986,16.862136],[80.506146,16.792487],[80.586234,16.933936],[80.474283,16.936564],[80.38431,16.975982],[80.501756,17.10797],[80.590939,17.139791],[80.669698,17.079924],[80.829519,17.046021],[80.893078,17.155634],[80.99048,17.21818],[81.144193,17.249538],[81.214333,17.323635],[81.408339,17.370643],[81.469526,17.420487],[81.535249,17.637689],[81.628586,17.763421],[81.775781,17.833207],[81.758969,17.908933]]}},{"type":"Feature","properties":{"name":null,"adm0":"India"},"bbox":[78.229572,12.63264,80.288097,13.527086],"geometry":{"type":"MultiLineString","coordinates":[[[80.260173,13.468452],[80.097571,13.463752],[79.961972,13.416546],[79.956701,13.365774],[79.816348,13.294925],[79.784929,13.224025],[79.696769,13.235807],[79.667933,13.291282],[79.571712,13.284073],[79.54422,13.323528],[79.449549,13.33115],[79.420197,13.219994],[79.31488,13.131989],[79.250801,13.147751],[79.161608,13.044915],[79.077582,13.035587],[78.944153,13.093387],[78.736207,13.06096],[78.64474,12.991998],[78.582625,12.778213],[78.419121,12.63264],[78.352768,12.641503],[78.229572,12.759893]],[[80.288097,13.527086],[80.277749,13.512516]]]}},{"type":"Feature","properties":{"name":null,"adm0":"India"},"bbox":[72.947207,20.039811,73.166315,20.127402],"geometry":{"type":"LineString","coordinates":[[73.166315,20.114871],[73.16094,20.047485],[72.997229,20.039811],[72.947207,20.127402]]}},{"type":"Feature","properties":{"name":null,"adm0":"India"},"bbox":[81.39403,17.806691,83.996455,22.539348],"geometry":{"type":"LineString","coordinates":[[81.39403,17.806691],[81.444156,17.879736],[81.542548,18.262451],[81.643833,18.292372],[81.740572,18.357898],[81.792352,18.438436],[81.913274,18.544915],[81.903663,18.621913],[81.968982,18.685733],[82.138894,18.747254],[82.169073,18.878719],[82.22447,18.921946],[82.224987,19.015196],[82.145405,19.244226],[82.168659,19.386595],[82.02903,19.517853],[82.029133,19.776468],[81.824184,19.913255],[81.867799,20.046658],[81.939629,20.104665],[82.046083,20.017874],[82.096209,20.050637],[82.228397,19.95873],[82.290306,19.836051],[82.381359,19.885944],[82.682323,19.822666],[82.695035,20.000537],[82.611216,19.988134],[82.415569,20.066967],[82.433656,20.159002],[82.421874,20.42803],[82.340225,20.556342],[82.366683,20.657086],[82.341982,20.86082],[82.4535,20.846867],[82.562124,20.954458],[82.668164,21.155479],[82.96458,21.178527],[83.078165,21.114551],[83.198261,21.172558],[83.279393,21.3588],[83.361041,21.33676],[83.381195,21.399547],[83.327658,21.499153],[83.351946,21.577262],[83.444034,21.718597],[83.473179,21.807171],[83.557102,21.834921],[83.570641,21.923055],[83.515347,21.963853],[83.54625,22.101623],[83.605367,22.195984],[83.733112,22.262285],[83.841425,22.348584],[83.945812,22.371193],[83.996455,22.440543],[83.970203,22.539348]]}},{"type":"Feature","properties":{"name":null,"adm0":"India"},"bbox":[83.970203,21.986126,86.686523,22.556737],"geometry":{"type":"LineString","coordinates":[[83.970203,22.539348],[84.067045,22.499583],[84.147763,22.386773],[84.310957,22.324012],[84.420822,22.330989],[84.530066,22.423024],[84.733671,22.427288],[84.80085,22.45018],[84.908337,22.421965],[85.065537,22.5032],[85.100367,22.393956],[85.087758,22.280165],[84.985232,22.112785],[85.109152,22.108496],[85.232038,22.035322],[85.324126,22.126686],[85.425205,22.164487],[85.550675,22.107591],[85.679143,22.075862],[85.792211,22.129089],[85.784666,22.011887],[85.834275,21.986126],[85.916234,22.022119],[85.974112,22.104594],[85.964603,22.24487],[85.986514,22.393621],[85.938765,22.500513],[86.039844,22.556737],[86.102476,22.500126],[86.268047,22.422404],[86.366026,22.330058],[86.486639,22.336854],[86.686523,22.218024]]}},{"type":"Feature","properties":{"name":null,"adm0":"India"},"bbox":[81.39403,17.79695,81.758969,17.908933],"geometry":{"type":"LineString","coordinates":[[81.758969,17.908933],[81.578411,17.79695],[81.39403,17.806691]]}},{"type":"Feature","properties":{"name":null,"adm0":"India"},"bbox":[92.995492,24.032537,93.312095,24.399131],"geometry":{"type":"LineString","coordinates":[[93.312095,24.032537],[93.248603,24.056982],[93.105666,24.044941],[92.995492,24.095274],[93.018436,24.399131]]}},{"type":"Feature","properties":{"name":null,"adm0":"India"},"bbox":[92.246309,23.68261,92.325352,24.23772],"geometry":{"type":"LineString","coordinates":[[92.246309,23.68261],[92.270678,23.829114],[92.318634,23.850534],[92.325352,24.188343],[92.29848,24.23772]]}},{"type":"Feature","properties":{"name":null,"adm0":"India"},"bbox":[93.449211,25.2058,94.654788,25.684221],"geometry":{"type":"LineString","coordinates":[[94.654788,25.444758],[94.552813,25.490331],[94.564699,25.684221],[94.325333,25.512035],[94.209371,25.495498],[94.026747,25.553841],[93.803195,25.543557],[93.808569,25.446096],[93.679068,25.328273],[93.605481,25.2058],[93.449211,25.302125]]}},{"type":"Feature","properties":{"name":null,"adm0":"India"},"bbox":[74.323453,23.036062,78.200116,26.823583],"geometry":{"type":"LineString","coordinates":[[78.200116,26.823583],[78.101207,26.795109],[78.0794,26.682919],[78.012841,26.69558],[77.90277,26.664032],[77.831456,26.575768],[77.715081,26.506031],[77.616792,26.482983],[77.431274,26.373662],[77.323374,26.351984],[77.209686,26.241964],[77.124729,26.237856],[77.082458,26.185275],[76.907998,26.098588],[76.727028,25.9163],[76.651787,25.922656],[76.545953,25.848293],[76.478361,25.7198],[76.551431,25.460126],[76.652304,25.379175],[76.780151,25.33202],[76.913476,25.309308],[77.080598,25.353181],[77.201624,25.35561],[77.255471,25.433512],[77.358617,25.407106],[77.362958,25.262128],[77.398925,25.212234],[77.341254,25.113997],[77.187361,25.12751],[76.999362,25.08772],[76.860973,25.033795],[76.883194,24.896956],[76.780564,24.837141],[76.848054,24.759703],[76.966806,24.737483],[77.037396,24.670303],[77.035226,24.538399],[76.942932,24.500236],[76.880507,24.56186],[76.806196,24.555788],[76.814567,24.360115],[76.891565,24.240924],[76.870275,24.181651],[76.766612,24.160334],[76.572515,24.273247],[76.542749,24.215189],[76.45614,24.265031],[76.230314,24.277872],[76.132749,24.329394],[76.116626,24.134031],[75.99901,24.051116],[75.997873,23.983937],[75.899378,23.918334],[75.776491,23.883142],[75.699804,23.793199],[75.597071,23.8179],[75.578157,23.875726],[75.490307,23.939934],[75.538883,24.041375],[75.621772,23.995228],[75.729983,24.00068],[75.805017,24.119122],[75.747759,24.190048],[75.794785,24.251647],[75.734427,24.423962],[75.792201,24.494164],[75.874883,24.514266],[75.869406,24.599377],[75.758818,24.777377],[75.648954,24.738335],[75.448036,24.703144],[75.20371,24.724951],[75.17198,24.762546],[75.317915,24.955247],[75.235129,25.040229],[75.133326,25.040022],[75.084441,24.888895],[74.981398,24.863031],[74.875874,24.919358],[74.81531,24.916516],[74.837841,24.797143],[74.974266,24.785748],[74.965378,24.694049],[74.869673,24.665575],[74.806525,24.735777],[74.711853,24.523852],[74.846832,24.435511],[74.766424,24.35872],[74.759292,24.256685],[74.869983,24.236118],[74.893134,24.134496],[74.968169,24.032771],[74.908327,23.896733],[74.90657,23.791313],[74.939023,23.687366],[74.822958,23.500116],[74.648188,23.43056],[74.569537,23.36785],[74.53636,23.250907],[74.65842,23.226464],[74.715884,23.179206],[74.611911,23.112672],[74.476106,23.062365],[74.323453,23.036062]]}},{"type":"Feature","properties":{"name":null,"adm0":"India"},"bbox":[74.466494,27.679293,77.280689,29.94719],"geometry":{"type":"LineString","coordinates":[[74.516517,29.94719],[74.547006,29.860813],[74.466494,29.798931],[74.506285,29.73679],[74.602713,29.726351],[74.574808,29.589693],[74.602093,29.470424],[74.537084,29.441382],[74.612841,29.332809],[74.758569,29.364254],[74.821408,29.402934],[74.90719,29.378465],[74.969616,29.284337],[75.106558,29.238216],[75.249702,29.256406],[75.328353,29.296222],[75.391502,29.252685],[75.392949,29.105976],[75.452067,29.023862],[75.515009,28.996473],[75.485966,28.926839],[75.593557,28.642671],[75.698563,28.520559],[75.887079,28.403848],[76.026192,28.262229],[76.032496,28.187815],[75.961906,28.139497],[75.992809,28.050691],[75.931521,27.91809],[75.99994,27.842745],[76.215018,27.841505],[76.180084,27.909563],[76.163341,28.0579],[76.266694,28.077485],[76.36798,28.15637],[76.453453,28.162829],[76.553085,27.971239],[76.657988,28.016972],[76.646826,28.085521],[76.856632,28.228975],[76.940555,28.122987],[76.920918,28.033535],[76.940555,27.852099],[76.900867,27.73438],[76.973007,27.679293],[77.040807,27.807295],[77.280689,27.80944]]}},{"type":"Feature","properties":{"name":null,"adm0":"India"},"bbox":[77.280689,26.823583,78.22306,27.80944],"geometry":{"type":"LineString","coordinates":[[77.280689,27.80944],[77.345595,27.541885],[77.459799,27.385073],[77.606147,27.32363],[77.657307,27.202707],[77.591368,27.130747],[77.51344,27.109224],[77.628471,26.97316],[77.460833,26.904224],[77.510546,26.833324],[77.704642,26.929752],[77.976564,26.904379],[78.106892,26.947296],[78.22306,26.937064],[78.200116,26.823583]]}},{"type":"Feature","properties":{"name":null,"adm0":"India"},"bbox":[76.703773,30.677404,76.82728,30.789129],"geometry":{"type":"LineString","coordinates":[[76.814567,30.789129],[76.703773,30.781403],[76.775603,30.677404],[76.82728,30.680712]]}},{"type":"Feature","properties":{"name":null,"adm0":"India"},"bbox":[73.898466,29.94719,74.516517,30.221774],"geometry":{"type":"LineString","coordinates":[[74.516517,29.94719],[73.915933,29.979902],[73.898466,30.034911],[73.969677,30.137437],[73.933167,30.221774]]}},{"type":"Feature","properties":{"name":null,"adm0":"India"},"bbox":[75.601618,30.907597,76.768162,32.516749],"geometry":{"type":"LineString","coordinates":[[75.847391,32.516749],[75.911677,32.431354],[75.692672,32.272268],[75.622909,32.258522],[75.639445,32.146849],[75.601618,32.068947],[75.706521,32.049827],[75.879741,31.97239],[75.964283,31.848754],[75.923252,31.806276],[76.07053,31.564172],[76.158484,31.338553],[76.275376,31.310441],[76.373561,31.419245],[76.433505,31.317804],[76.561146,31.276722],[76.645172,30.999271],[76.768162,30.907597]]}},{"type":"Feature","properties":{"name":null,"adm0":"India"},"bbox":[74.516517,29.561788,76.904898,30.907597],"geometry":{"type":"MultiLineString","coordinates":[[[76.768162,30.907597],[76.832758,30.842278],[76.814567,30.789129]],[[76.82728,30.680712],[76.886604,30.633789],[76.904898,30.384089],[76.752866,30.43052],[76.714315,30.337115],[76.605588,30.274431],[76.624812,30.142837],[76.531381,30.083978],[76.429578,30.140357],[76.266694,30.113692],[76.178121,29.954684],[76.22556,29.869082],[75.956945,29.738624],[75.886665,29.749244],[75.786,29.83097],[75.717684,29.778028],[75.604409,29.764669],[75.445762,29.806191],[75.31161,29.656175],[75.29528,29.574862],[75.234612,29.561788],[75.172084,29.688214],[75.23823,29.748779],[75.187897,29.834743],[75.105214,29.821384],[75.072762,29.891147],[74.99566,29.872983],[74.90347,29.954839],[74.823371,29.984992],[74.710717,29.968378],[74.650669,29.914066],[74.516517,29.94719]]]}},{"type":"Feature","properties":{"name":null,"adm0":"India"},"bbox":[93.018436,24.399131,93.449211,25.302125],"geometry":{"type":"LineString","coordinates":[[93.449211,25.302125],[93.394331,25.235049],[93.189175,24.810811],[93.12396,24.809804],[93.087063,24.706994],[93.045721,24.444529],[93.018436,24.399131]]}},{"type":"Feature","properties":{"name":null,"adm0":"India"},"bbox":[92.29848,24.132507,93.018436,24.471091],"geometry":{"type":"LineString","coordinates":[[93.018436,24.399131],[92.82868,24.377324],[92.746308,24.471091],[92.701246,24.361924],[92.630863,24.295132],[92.624455,24.238521],[92.489476,24.132507],[92.416199,24.239451],[92.29848,24.23772]]}},{"type":"Feature","properties":{"name":null,"adm0":"India"},"bbox":[93.335936,25.302125,95.176444,27.033182],"geometry":{"type":"LineString","coordinates":[[95.176444,27.033182],[95.031233,26.933498],[94.917132,26.951172],[94.798896,26.814384],[94.690479,26.741004],[94.486564,26.676667],[94.358199,26.498383],[94.207201,26.483707],[94.177435,26.372447],[94.00773,26.184397],[93.973417,26.040375],[93.98923,25.94622],[93.90417,25.85682],[93.752138,25.959088],[93.708937,25.870101],[93.580779,25.763079],[93.524349,25.689285],[93.335936,25.538028],[93.458513,25.380725],[93.449211,25.302125]]}},{"type":"Feature","properties":{"name":null,"adm0":"India"},"bbox":[77.585063,28.737316,80.073054,30.394915],"geometry":{"type":"LineString","coordinates":[[80.073054,28.820925],[80.000626,28.737316],[79.84446,28.804857],[79.841049,28.855293],[79.743278,28.88524],[79.699353,28.850436],[79.526237,28.878418],[79.443658,28.849583],[79.371207,28.969886],[79.29638,28.971565],[79.170599,29.051121],[79.055878,29.151761],[78.950354,29.127008],[78.867672,29.215168],[78.721531,29.284027],[78.906946,29.388362],[78.643086,29.537577],[78.478652,29.721959],[78.38057,29.761569],[78.228331,29.947423],[78.154951,29.925435],[78.189057,29.706688],[78.107202,29.654521],[77.982765,29.718755],[77.831456,29.659895],[77.783811,29.741751],[77.747017,29.877996],[77.746397,29.977344],[77.83497,30.131391],[77.928918,30.24433],[77.750634,30.325617],[77.661544,30.394915],[77.585063,30.382926]]}},{"type":"Feature","properties":{"name":null,"adm0":"India"},"bbox":[77.585063,30.382926,78.945844,31.290338],"geometry":{"type":"LineString","coordinates":[[77.585063,30.382926],[77.812956,30.521057],[77.705779,30.791454],[77.789082,30.930645],[77.806032,31.050508],[77.941114,31.172904],[78.039712,31.17218],[78.284245,31.290338],[78.368685,31.290028],[78.500976,31.219568],[78.581695,31.231066],[78.792741,31.20701],[78.869533,31.121977],[78.945844,31.137697]]}},{"type":"Feature","properties":{"name":null,"adm0":"India"},"bbox":[87.768007,25.214094,88.297174,26.5391],"geometry":{"type":"LineString","coordinates":[[87.783717,25.214094],[87.838081,25.27776],[87.768007,25.436277],[87.9558,25.534075],[88.043133,25.547097],[88.04644,25.668873],[87.910531,25.76512],[87.805421,25.873666],[87.831363,26.010557],[87.979364,26.145795],[88.079823,26.19282],[88.180489,26.285528],[88.297174,26.336222],[88.282291,26.428439],[88.194958,26.501483],[88.087136,26.5391]]}},{"type":"Feature","properties":{"name":null,"adm0":"India"},"bbox":[86.686523,21.613593,87.477387,22.218024],"geometry":{"type":"LineString","coordinates":[[87.477387,21.613593],[87.408546,21.786138],[87.275014,21.813966],[87.231503,21.848098],[87.190678,21.956205],[87.112957,21.971398],[87.059213,21.90719],[86.993688,21.972483],[86.987383,22.066586],[86.833904,22.121751],[86.686523,22.218024]]}},{"type":"Feature","properties":{"name":null,"adm0":"India"},"bbox":[85.828901,22.218024,87.895442,25.214094],"geometry":{"type":"LineString","coordinates":[[86.686523,22.218024],[86.780264,22.286702],[86.789876,22.415635],[86.718149,22.469404],[86.749362,22.5448],[86.611386,22.604254],[86.586891,22.680683],[86.399099,22.784966],[86.414808,22.943458],[86.450465,23.004203],[86.142474,23.028259],[86.020207,23.152592],[85.888432,23.163083],[85.829831,23.260803],[85.89484,23.416478],[85.828901,23.483063],[85.996436,23.511511],[86.056381,23.602513],[86.134515,23.558872],[86.121493,23.500891],[86.214304,23.449163],[86.336467,23.508436],[86.348352,23.567942],[86.458527,23.638609],[86.646112,23.6969],[86.799798,23.725529],[86.80972,23.818081],[86.877209,23.913063],[87.079677,23.815213],[87.166287,23.810227],[87.241218,23.850844],[87.301576,24.056852],[87.33806,24.001843],[87.488748,24.046853],[87.486888,24.124135],[87.57205,24.117572],[87.661554,24.186198],[87.631478,24.269372],[87.720568,24.317792],[87.80046,24.500779],[87.790848,24.562455],[87.877251,24.58868],[87.895442,24.670303],[87.853274,24.758437],[87.877458,24.938866],[87.844075,25.041547],[87.78103,25.08989],[87.783717,25.214094]]}},{"type":"Feature","properties":{"name":null,"adm0":"India"},"bbox":[89.657829,26.187174,89.888498,26.722057],"geometry":{"type":"LineString","coordinates":[[89.657829,26.187174],[89.727268,26.206204],[89.781528,26.308679],[89.828864,26.327851],[89.888498,26.532903],[89.858701,26.722057]]}},{"type":"Feature","properties":{"name":null,"adm0":"India"},"bbox":[88.000897,27.085117,88.756175,27.248035],"geometry":{"type":"LineString","coordinates":[[88.756175,27.148784],[88.66449,27.173355],[88.518039,27.176223],[88.447656,27.114495],[88.357429,27.085117],[88.233095,27.137104],[88.118167,27.138499],[88.000897,27.248035]]}},{"type":"Feature","properties":{"name":null,"adm0":"India"},"bbox":[92.139056,24.23772,92.29848,24.545281],"geometry":{"type":"LineString","coordinates":[[92.29848,24.23772],[92.220242,24.264333],[92.257759,24.396005],[92.221689,24.500417],[92.139056,24.545281]]}},{"type":"Feature","properties":{"name":null,"adm0":"India"},"bbox":[89.808909,25.004773,92.805529,26.089261],"geometry":{"type":"LineString","coordinates":[[92.384937,25.004773],[92.564924,25.152419],[92.805529,25.227711],[92.789613,25.348892],[92.588282,25.498831],[92.593449,25.586656],[92.382403,25.764345],[92.167325,25.689543],[92.165465,25.809174],[92.214661,25.919478],[92.183965,25.993013],[92.26148,26.055413],[92.164122,26.088382],[91.922483,26.03823],[91.825331,26.089261],[91.75195,26.048074],[91.718154,25.967692],[91.582348,26.026887],[91.474655,25.896249],[91.360553,25.843255],[91.250999,25.737602],[91.208108,25.736181],[91.178859,25.869636],[91.096797,25.839922],[90.97453,25.943636],[90.752942,25.962137],[90.644318,25.931467],[90.617653,25.969785],[90.484534,26.011927],[90.135615,25.959785],[89.974178,25.801578],[89.942345,25.691481],[90.002083,25.586811],[89.897283,25.541361],[89.875476,25.460436],[89.808909,25.440662]]}},{"type":"Feature","properties":{"name":null,"adm0":"India"},"bbox":[75.347543,33.197406,76.739843,34.572739],"geometry":{"type":"LineString","coordinates":[[76.739843,33.197406],[76.646566,33.352107],[76.488031,33.502231],[76.246099,33.574094],[76.235838,33.728794],[76.166381,33.873232],[76.024367,33.982089],[75.879592,33.963696],[75.741656,34.066434],[75.6634,34.19923],[75.584564,34.210116],[75.469487,34.280052],[75.374549,34.370981],[75.347543,34.572739]]}},{"type":"Feature","properties":{"name":null,"adm0":"India"},"bbox":[76.739843,32.504166,78.380983,33.197406],"geometry":{"type":"LineString","coordinates":[[78.380983,32.528041],[78.270396,32.504166],[78.304089,32.59615],[78.374679,32.648783],[78.366617,32.76521],[78.253859,32.697901],[78.114643,32.667722],[78.008913,32.61031],[77.93853,32.695343],[77.928918,32.762445],[77.857915,32.873007],[77.721075,33.012636],[77.538968,32.918353],[77.348695,32.867245],[77.135788,32.92675],[76.956058,33.02509],[76.739843,33.197406]]}},{"type":"Feature","properties":{"name":null,"adm0":"India"},"bbox":[72.708102,20.072644,74.291517,21.951761],"geometry":{"type":"MultiLineString","coordinates":[[[74.12884,21.951761],[74.06104,21.940315],[73.917587,21.866883],[73.809376,21.836471],[73.8286,21.650927],[73.751602,21.611033],[73.820848,21.508326],[73.995928,21.555325],[74.191575,21.545507],[74.291517,21.513855],[74.108686,21.451559],[74.053496,21.465718],[73.960168,21.394379],[73.91862,21.291569],[73.800074,21.280949],[73.77744,21.216638],[73.695171,21.122639],[73.868287,20.974767],[73.902911,20.883868],[73.909008,20.775709],[73.81103,20.676904],[73.792323,20.606184],[73.699822,20.562414],[73.475753,20.678712],[73.404233,20.66985],[73.4587,20.538023],[73.360721,20.369377],[73.394104,20.270391],[73.363822,20.178304],[73.271838,20.193419],[73.243313,20.138642],[73.166315,20.114871]],[[72.947207,20.127402],[72.708102,20.072644]]]}},{"type":"Feature","properties":{"name":null,"adm0":"India"},"bbox":[70.966618,20.114871,73.166315,20.746989],"geometry":{"type":"MultiLineString","coordinates":[[[73.166315,20.114871],[73.041775,20.157736],[73.046839,20.221324],[73.112158,20.254914],[73.049939,20.330258],[72.896667,20.221505],[72.947207,20.127402]],[[72.818112,20.37877],[72.874886,20.404282],[72.847004,20.468313]],[[71.005951,20.736558],[70.982705,20.746989],[70.966618,20.729118]]]}},{"type":"Feature","properties":{"name":null,"adm0":"India"},"bbox":[71.056632,23.036062,74.323453,24.708363],"geometry":{"type":"LineString","coordinates":[[71.056632,24.69282],[71.251496,24.636817],[71.378414,24.646661],[71.545845,24.688054],[71.651885,24.658004],[71.750897,24.678132],[71.947888,24.662629],[72.050931,24.708363],[72.099403,24.656557],[72.261667,24.60824],[72.275206,24.568397],[72.500929,24.49605],[72.555706,24.50667],[72.667637,24.460936],[72.747012,24.380657],[72.897391,24.360581],[72.958679,24.390062],[72.99971,24.493286],[73.095001,24.503647],[73.137169,24.335931],[73.079292,24.204311],[73.245586,24.015537],[73.354107,24.104731],[73.42387,23.940942],[73.364029,23.889085],[73.361652,23.784233],[73.51079,23.684498],[73.620551,23.582592],[73.618794,23.451876],[73.710674,23.415031],[73.811857,23.434616],[73.904461,23.333382],[73.959548,23.358833],[74.105792,23.247677],[74.108996,23.191117],[74.23333,23.1559],[74.323453,23.036062]]}},{"type":"Feature","properties":{"name":null,"adm0":"India"},"bbox":[74.025694,21.951761,74.458122,23.036062],"geometry":{"type":"LineString","coordinates":[[74.323453,23.036062],[74.365001,22.874961],[74.4266,22.871628],[74.458122,22.804112],[74.37637,22.651047],[74.272707,22.609654],[74.161189,22.516662],[74.063108,22.5209],[74.025694,22.47961],[74.113027,22.410674],[74.221547,22.409433],[74.224338,22.349205],[74.05639,22.294169],[74.071479,22.197793],[74.141862,22.062814],[74.12884,21.951761]]}},{"type":"Feature","properties":{"name":null,"adm0":"India"},"bbox":[95.176444,26.654587,95.246465,27.033182],"geometry":{"type":"LineString","coordinates":[[95.246465,26.654587],[95.235252,26.790613],[95.202179,26.866732],[95.225433,26.974219],[95.176444,27.033182]]}},{"type":"Feature","properties":{"name":null,"adm0":"India"},"bbox":[94.959279,27.033182,96.007194,27.993305],"geometry":{"type":"LineString","coordinates":[[95.176444,27.033182],[95.261193,27.048866],[95.423768,27.141289],[95.493427,27.250042],[95.545931,27.273943],[95.643806,27.230328],[95.799559,27.28588],[95.903738,27.276087],[96.007194,27.365126],[95.978256,27.449694],[95.879554,27.462613],[95.886788,27.557],[95.804313,27.619374],[95.775891,27.717327],[95.900741,27.86538],[95.964096,27.993305],[95.716773,27.990204],[95.543554,27.90207],[95.408368,27.870831],[95.31318,27.895791],[94.959279,27.773374]]}},{"type":"Feature","properties":{"name":null,"adm0":"India"},"bbox":[75.804913,32.516749,76.739843,33.23146],"geometry":{"type":"LineString","coordinates":[[76.739843,33.197406],[76.625949,33.189292],[76.558562,33.23146],[76.396712,33.197716],[76.294289,33.147899],[76.215948,33.051084],[76.100813,33.01305],[75.972448,32.911041],[75.826411,32.938067],[75.804913,32.898612],[75.9093,32.772703],[75.922632,32.617338],[75.847391,32.516749]]}},{"type":"Feature","properties":{"name":null,"adm0":"India"},"bbox":[75.298403,32.300587,75.847391,32.516749],"geometry":{"type":"LineString","coordinates":[[75.847391,32.516749],[75.743005,32.464375],[75.682647,32.399806],[75.611954,32.395465],[75.5024,32.300587],[75.390365,32.335494],[75.298403,32.332427]]}},{"type":"Feature","properties":{"name":null,"adm0":"India"},"bbox":[80.270377,17.776073,81.39403,18.71369],"geometry":{"type":"LineString","coordinates":[[81.39403,17.806691],[81.245201,17.803694],[81.14774,17.83656],[81.044904,17.776073],[80.985579,17.840462],[80.978964,17.963943],[80.93752,18.086312],[80.852357,18.196357],[80.772259,18.232712],[80.696191,18.412287],[80.583433,18.541375],[80.502611,18.59995],[80.409077,18.588866],[80.319883,18.642247],[80.270377,18.71369]]}},{"type":"Feature","properties":{"name":null,"adm0":"India"},"bbox":[92.073023,26.915504,94.959279,27.773374],"geometry":{"type":"LineString","coordinates":[[92.073023,26.915504],[92.20369,26.91633],[92.468385,26.966384],[92.620785,27.03785],[92.717038,27.052138],[92.909543,27.030706],[92.965691,26.973532],[93.094028,26.959234],[93.414871,26.994976],[93.503102,26.973532],[93.683905,26.981815],[93.839987,27.109272],[93.896626,27.242834],[94.126582,27.453112],[94.207511,27.538216],[94.233019,27.629263],[94.289167,27.622156],[94.414456,27.583372],[94.667018,27.651749],[94.959279,27.773374]]}}]}